[{"OBJECT_NAME":"AFR-1","OBJECT_ID":"2023-084AJ","EPOCH":"2026-03-09T23:02:07.499328","MEAN_MOTION":15.27543824,"ECCENTRICITY":0.00099838,"INCLINATION":97.6099,"RA_OF_ASC_NODE":203.4313,"ARG_OF_PERICENTER":334.9676,"MEAN_ANOMALY":25.1077,"EPHEMERIS_TYPE":0,"CLASSIFICATION_TYPE":"U","NORAD_CAT_ID":56964,"ELEMENT_SET_NO":999,"REV_AT_EPOCH":15207,"BSTAR":0.00024843733,"MEAN_MOTION_DOT":6.624e-5,"MEAN_MOTION_DDOT":0},{"OBJECT_NAME":"STARLINK-30370","OBJECT_ID":"2023-131V","EPOCH":"2026-03-09T22:00:01.999584","MEAN_MOTION":15.26761392,"ECCENTRICITY":0.00016504,"INCLINATION":43,"RA_OF_ASC_NODE":156.2263,"ARG_OF_PERICENTER":273.1217,"MEAN_ANOMALY":211.1911,"EPHEMERIS_TYPE":0,"CLASSIFICATION_TYPE":"U","NORAD_CAT_ID":57751,"ELEMENT_SET_NO":999,"REV_AT_EPOCH":578,"BSTAR":-0.00066720584,"MEAN_MOTION_DOT":-0.00018125,"MEAN_MOTION_DDOT":0}]
